TIANMU-1 08             
1 57400U 23101B   26066.00237819  .00000346  00000+0  14775-4 0  9993
2 57400  97.2717 118.7901 0006380 134.2174 225.9592 15.29204229146020
STARLINK-30932          
1 58523U 23191R   26068.42355886  .00117798  00000+0  42662-2 0  9996
2 58523  42.9994 104.6731 0000931 208.9228 151.1572 15.27240316125380
